SHIJIAN-6 04B (SJ-6 04B)
1 37180U 10051B   24090.56589411  .00002098  00000+0  19308-3 0  9992
2 37180  97.8347  79.9324 0012487 128.3787 231.8557 14.95797960734654
FENGYUN 3B              
1 37214U 10059A   24090.55959243  .00000180  00000+0  11765-3 0  9990
2 37214  99.0640 117.5261 0021394 316.8168 157.3439 14.14464319693098
COSMO-SKYMED 4          
1 37216U 10060A   24090.53262009  .00001115  00000+0  14661-3 0  9996
2 37216  97.8862 274.8314 0001536  88.7750 271.3639 14.82143056724783
ELEKTRO-L 1 (GOMS 2)    
1 37344U 11001A   24090.57051403  .00000156  00000+0  00000+0 0  9994
2 37344   7.8307  62.2558 0006358  11.5287 358.8032  1.00175362 48389
RESOURCESAT-2           
1 37387U 11015A   24090.61951797  .00000272  00000+0  14312-3 0  9990
2 37387  98.5837 158.5455 0004036 359.4710   0.6463 14.21690699671296
YOUTHSAT                
1 37388U 11015B   24090.59229965  .00000418  00000+0  19640-3 0  9994
2 37388  98.3007  94.4377 0014359 192.4467 277.4776 14.24822279672452
APRIZESAT 6             
1 37793U 11044F   24090.60897684  .00001359  00000+0  21083-3 0  9996
2 37793  98.3136 332.0491 0046079 145.3651 272.0796 14.74178784677895
JUGNU                   
1 37839U 11058B   24090.61075713  .00000668  00000+0  21135-3 0  9994
2 37839  19.9596 178.8200 0018788 148.9899 349.5273 14.13153235644484
SRMSAT                  
1 37841U 11058D   24090.62473816  .00000600  00000+0  18368-3 0  9994
2 37841  19.9717 271.9347 0011808 311.3148 108.2419 14.11066383643451
SUOMI NPP               
1 37849U 11061A   24090.59375306  .00000213  00000+0  12181-3 0  9994
2 37849  98.7163  29.7776 0001565 102.7490 257.3861 14.19539572643725
M-CUBED & EXP-1 PRIME   
1 37855U 11061F   24090.30384223  .00110340  00000+0  14504-2 0  9991
2 37855 101.6869 225.6622 0069778 227.9314 131.5976 15.55183343680689
YAOGAN 12               
1 37875U 11066B   24090.59596352  .00012002  00000+0  49869-3 0  9996
2 37875  97.2289 152.9496 0006220 234.2451 125.8209 15.23934439688884
ZIYUAN 3-1 (ZY 3-1)     
1 38046U 12001A   24090.58913623  .00014459  00000+0  51300-3 0  9991
2 38046  97.2546 154.3616 0006133  72.5627 287.6283 15.29146819678861
BEIDOU-2 M4             
1 38251U 12018B   24089.93092452 -.00000060  00000+0  00000+0 0  9993
2 38251  56.2964 331.2558 0012497 274.6321  85.2769  1.86232086 80874
ARIRANG-3 (KOMPSAT-3)   
1 38338U 12025B   24090.60939720  .00001239  00000+0  25324-3 0  9999
2 38338  98.2550  36.8466 0011381 121.0594 239.1726 14.62592911633175
HORYU-2                 
1 38340U 12025D   24090.53084957  .00005380  00000+0  70222-3 0  9995
2 38340  98.1593 188.8777 0009142 292.5900  67.4344 14.80920620628583
METOP-B                 
1 38771U 12049A   24090.55104089  .00000236  00000+0  12776-3 0  9995
2 38771  98.6362 149.5077 0000629 123.6177 236.5060 14.21495232598387
SJ-9A                   
1 38860U 12056A   24090.59091531  .00002298  00000+0  29601-3 0  9998
2 38860  97.5916  87.4291 0028950  38.7250 321.6031 14.81693659579676
COSMOS 2484             
1 39059U 13001C   24090.57386860  .00000053  00000+0  30828-3 0  9990
2 39059  82.5081   4.6721 0026920   0.1088 359.9993 12.42894568508108
SARAL                   
1 39086U 13009A   24090.56569093  .00000259  00000+0  11198-3 0  9995
2 39086  98.5512 276.7688 0002589 134.0965 226.0432 14.32373073579827
AAUSAT 3                
1 39087U 13009B   24090.47831802  .00001710  00000+0  58489-3 0  9993
2 39087  98.3733 283.0397 0013007 116.9843 243.2674 14.37494335580876
STRAND-1                
1 39090U 13009E   24090.47236225  .00000857  00000+0  30984-3 0  9996
2 39090  98.3833 280.9240 0009862 123.9420 236.2705 14.35956030580945
BRITE-AUSTRIA           
1 39091U 13009F   24090.50435915  .00000543  00000+0  20252-3 0  9997
2 39091  98.3871 280.2194 0011243 130.6309 229.5857 14.35727479580975
UNIBRITE                
1 39092U 13009G   24090.51435437  .00000556  00000+0  20771-3 0  9998
2 39092  98.3911 280.1341 0010210 126.3274 233.8856 14.35600672580927
AIST-2 (RS-43)          
1 39133U 13015D   24090.56850918  .00006705  00000+0  39891-3 0  9996
2 39133  64.8737 354.3364 0005542 263.1812  96.8681 15.12007460601037
GAOFEN-1                
1 39150U 13018A   24090.58508284  .00001400  00000+0  20799-3 0  9990
2 39150  97.9942 163.7672 0019617 352.5868   7.5049 14.76470281588920
NEE-01 PEGASO           
1 39151U 13018B   24090.26353843  .00005252  00000+0  62137-3 0  9996
2 39151  98.0250 206.6982 0014195 298.4944  61.4840 14.84976117590250
TURKSAT-3USAT           
1 39152U 13018C   24090.19755781  .00005402  00000+0  61893-3 0  9991
2 39152  97.8289 177.1006 0013848 259.1845 100.7812 14.86275231590467
CUBEBUG-1 (CAPITAN BETO)
1 39153U 13018D   24090.28415141  .00006155  00000+0  70068-3 0  9995
2 39153  98.0624 214.5231 0013833 290.2136  69.7591 14.86504319590407
PROBA-V                 
1 39159U 13021A   24090.54769591  .00000169  00000+0  92693-4 0  9993
2 39159  98.3105 101.4393 0003964 359.8812   0.2366 14.23229510566074
ESTCUBE 1               
1 39161U 13021C   24090.16771156  .00003319  00000+0  49050-3 0  9992
2 39161  97.8343 159.0485 0010313 122.6391 237.5815 14.75844490585432
ARIRANG-5 (KOMPSAT-5)   
1 39227U 13042A   24090.55721466  .00002592  00000+0  18955-3 0  9992
2 39227  97.6202 277.5573 0001299  46.0355 314.0978 15.04490542582271
GONETS-M 5              
1 39249U 13048A   24090.51851738  .00000036  00000+0  19040-3 0  9991
2 39249  82.4788 127.5077 0017067 172.1274 188.0077 12.42891672478428
GONETS-M 7              
1 39251U 13048C   24090.57022717  .00000048  00000+0  27692-3 0  9992
2 39251  82.4860 129.9604 0017626 172.9283 187.2048 12.42869370478387
FENGYUN 3C              
1 39260U 13052A   24090.60219574  .00000222  00000+0  13280-3 0  9992
2 39260  98.4301  94.3751 0010855 187.6323 172.4689 14.16169641544149
CASSIOPE                
1 39265U 13055A   24090.60046125  .00034815  00000+0  75092-3 0  9994
2 39265  80.9526 283.0481 0514746 150.6252 212.4972 14.65846719546868
APRIZESAT 7             
1 39416U 13066A   24090.59310570  .00003012  00000+0  33819-3 0  9996
2 39416  97.6634  52.4953 0039305  10.5099 349.6930 14.86931439560858
ZACUBE-1 (TSHEPISOSAT)  
1 39417U 13066B   24090.61437708  .00007328  00000+0  78170-3 0  9996
2 39417  97.7269  48.4504 0053580  61.4685 299.1911 14.88070303559894
APRIZESAT 8             
1 39425U 13066K   24090.44864964  .00002940  00000+0  35363-3 0  9996
2 39425  97.7217  45.4471 0050989  64.9173 295.7321 14.83745700559562
CINEMA-3 (KHUSAT-2)     
1 39426U 13066L   24090.51809389  .00003456  00000+0  50643-3 0  9996
2 39426  97.8418  15.1703 0097030 304.9313  54.2808 14.73067549555156
TRITON-1                
1 39427U 13066M   24090.56060610  .00005862  00000+0  83932-3 0  9998
2 39427  97.8424  11.1254 0103396 336.1981  23.4463 14.73318659554630
DELFI-N3XT              
1 39428U 13066N   24090.50437225  .00010139  00000+0  13328-2 0  9997
2 39428  97.8389  11.0008 0103055 344.5930  15.2149 14.76708487554473
GOMX-1                  
1 39430U 13066Q   24090.58158671  .00002877  00000+0  48672-3 0  9994
2 39430  97.7437 329.7091 0142266 142.1437 218.9875 14.63562165551361
BRITE-PL1 (LEM)         
1 39431U 13066R   24090.45542904  .00001054  00000+0  22789-3 0  9994
2 39431  97.6955 255.6466 0197713   6.2037 354.1538 14.48744194546711
ICUBE-1                 
1 39432U 13066S   24090.59440166  .00008669  00000+0  69358-3 0  9999
2 39432  97.5136  74.9821 0025602 236.4394 123.4385 15.00166957562156
HUMSAT-D                
1 39433U 13066T   24090.47708489  .00014010  00000+0  95352-3 0  9992
2 39433  97.4885  84.0403 0019965 187.7062 172.3862 15.06250095562897
VELOX-PII               
1 39438U 13066Y   24090.44031840  .00004992  00000+0  59150-3 0  9998
2 39438  97.7808  40.1433 0064896 128.3029 232.4045 14.83470774557496
FIRST-MOVE              
1 39439U 13066Z   24090.42222773  .00018193  00000+0  15425-2 0  9998
2 39439  97.7169  54.7568 0050517  42.4309 318.0801 14.97001139559087
CUBEBUG-2 (LO-74)       
1 39440U 13066AA  24090.56431480  .00004306  00000+0  52178-3 0  9990
2 39440  97.8070  36.0262 0071507 169.5405 190.7316 14.82312388556689
NEE-02 KRYSAOR          
1 39441U 13066AB  24090.39432464  .00003799  00000+0  49241-3 0  9997
2 39441  97.8165  32.0135 0074874 190.8300 169.1303 14.79432015556289
FUNCUBE-1 (AO-73)       
1 39444U 13066AE  24090.44781483  .00009719  00000+0  97329-3 0  9992
2 39444  97.7131  51.2290 0050978  44.6278 315.9027 14.90612970558377
HINCUBE                 
1 39445U 13066AF  24090.61162988  .00009055  00000+0  91527-3 0  9992
2 39445  97.7138  51.0722 0051058  46.9687 313.5790 14.90259802558329
UWE-3                   
1 39446U 13066AG  24090.37862429  .00005908  00000+0  67454-3 0  9998
2 39446  97.7742  41.9044 0063434 117.5816 243.1861 14.84975574557001
COSMOS 2488             
1 39483U 13076A   24090.60259328  .00000025  00000+0  10794-3 0  9994
2 39483  82.4830 312.5996 0020043  57.5496 302.7519 12.42882315465440
COSMOS 2489             
1 39484U 13076B   24090.57536352  .00000048  00000+0  27270-3 0  9998
2 39484  82.4869 313.7494 0022106  58.8640 301.4604 12.42874387465492
COSMOS 2490             
1 39485U 13076C   24090.54819299  .00000034  00000+0  17135-3 0  9994
2 39485  82.4812 312.1896 0021933  73.2578 287.0906 12.42888497465422
AIST-1 (RS-41)          
1 39492U 13078C   24090.59989121  .00002644  00000+0  26354-3 0  9993
2 39492  82.4188 331.5153 0020070  99.9905 260.3581 14.91078762554522
KAZEOSAT 1              
1 39731U 14024A   24090.52866936  .00000455  00000+0  15187-3 0  9992
2 39731  98.3981 168.2547 0000999  90.2530 269.8774 14.42041012522069
COSMOS 2496             
1 39761U 14028A   24090.58728183  .00000033  00000+0  16344-3 0  9994
2 39761  82.4409 255.1881 0019903  44.0085 316.2575 12.42890543447066
